NORAD_CAT_ID,OBJECT_NAME,OBJECT_TYPE,EPOCH,MEAN_MOTION,ECCENTRICITY,INCLINATION,RA_OF_ASC_NODE,ARG_OF_PERICENTER,MEAN_ANOMALY,BSTAR,MEAN_MOTION_DOT,MEAN_MOTION_DDOT,TLE_LINE0,TLE_LINE1,TLE_LINE2,SEMIMAJOR_AXIS,PERIOD,APOGEE,PERIGEE,DECAYED
53289.0,STARLINK-4176,PAYLOAD,2023-04-23 06:22:45,15.0885234,0.0002373,53.2148,219.2873,78.9813,281.1446,0.00052349,8.056e-05,0.0,0 STARLINK-4176,1 53289U 22086AZ  23113.26580637  .00008056  00000-0  52349-3 0  9997,2 53289  53.2148 219.2873 0002373  78.9813 281.1446 15.08852340 42362,6917.843,95.437,541.349,538.066,0.0
53289.0,STARLINK-4176,PAYLOAD,2023-04-23 17:30:27,15.08844205,0.0001025,53.2146,217.2057,80.2837,279.8271,0.0020899,0.00033133,0.0,0 STARLINK-4176,1 53289U 22086AZ  23113.72948922  .00033133  00000-0  20899-2 0  9991,2 53289  53.2146 217.2057 0001025  80.2837 279.8271 15.08844205 42436,6917.868,95.437,540.442,539.023,0.0
53289.0,STARLINK-4176,PAYLOAD,2023-04-23 19:05:50,15.08857847,0.0001006,53.2146,216.9084,82.0181,278.0925,0.0028453,0.00045308,0.0,0 STARLINK-4176,1 53289U 22086AZ  23113.79572827  .00045308  00000-0  28453-2 0  9996,2 53289  53.2146 216.9084 0001006  82.0181 278.0925 15.08857847 42605,6917.826,95.436,540.387,538.995,0.0
53289.0,STARLINK-4176,PAYLOAD,2023-04-25 10:50:28,15.08781507,9.6e-05,53.2146,209.4753,125.8282,234.2799,0.00078459,0.00012201,0.0,0 STARLINK-4176,1 53289U 22086AZ  23115.45172095  .00012201  00000-0  78459-3 0  9992,2 53289  53.2146 209.4753 0000960 125.8282 234.2799 15.08781507 42850,6918.059,95.441,540.588,539.26,0.0
53289.0,STARLINK-4176,PAYLOAD,2023-04-26 12:16:40,15.08832657,0.0001009,53.2146,204.7179,110.4361,249.6739,0.0012829,0.00020184,0.0,0 STARLINK-4176,1 53289U 22086AZ  23116.51157978  .00020184  00000-0  12829-2 0  9990,2 53289  53.2146 204.7179 0001009 110.4361 249.6739 15.08832657 43019,6917.903,95.438,540.466,539.07,0.0
53289.0,STARLINK-4176,PAYLOAD,2023-04-26 17:02:49,15.08842189,0.0001001,53.2144,203.8255,109.6696,250.4404,0.0013911,0.00021922,0.0,0 STARLINK-4176,1 53289U 22086AZ  23116.71029986  .00021922  00000-0  13911-2 0  9993,2 53289  53.2144 203.8255 0001001 109.6696 250.4404 15.08842189 43048,6917.874,95.437,540.431,539.046,0.0
53289.0,STARLINK-4176,PAYLOAD,2023-04-27 12:07:27,15.08859272,0.0001017,53.2152,200.2563,102.3061,257.8045,0.0010124,0.0001587,0.0,0 STARLINK-4176,1 53289U 22086AZ  23117.50517668  .00015870  00000-0  10124-2 0  9998,2 53289  53.2152 200.2563 0001017 102.3061 257.8045 15.08859272 43169,6917.821,95.436,540.39,538.983,0.0
53289.0,STARLINK-4176,PAYLOAD,2023-04-27 16:53:36,15.08867495,0.0001024,53.2154,199.3641,101.8886,258.2221,0.0010982,0.00017246,0.0,0 STARLINK-4176,1 53289U 22086AZ  23117.70389322  .00017246  00000-0  10982-2 0  9995,2 53289  53.2154 199.3641 0001024 101.8886 258.2221 15.08867495 43036,6917.796,95.436,540.37,538.953,0.0
53289.0,STARLINK-4176,PAYLOAD,2023-04-28 05:36:41,15.08856424,0.000122,53.2157,196.985,88.8564,271.2568,0.00044621,6.824e-05,0.0,0 STARLINK-4176,1 53289U 22086AZ  23118.23381224  .00006824  00000-0  44621-3 0  9995,2 53289  53.2157 196.9850 0001220  88.8564 271.2568 15.08856424 43117,6917.83,95.437,540.539,538.851,0.0
53289.0,STARLINK-4176,PAYLOAD,2023-04-28 11:58:13,15.08858323,9.02e-05,53.2158,195.7968,86.474,273.6355,0.00048802,7.491e-05,0.0,0 STARLINK-4176,1 53289U 22086AZ  23118.49876936  .00007491  00000-0  48802-3 0  9998,2 53289  53.2158 195.7968 0000902  86.4740 273.6355 15.08858323 43313,6917.824,95.436,540.313,539.065,0.0
53289.0,STARLINK-4176,PAYLOAD,2023-04-29 05:27:28,15.08839205,0.00013,53.2153,192.5259,92.125,267.9891,0.00019516,2.819e-05,0.0,0 STARLINK-4176,1 53289U 22086AZ  23119.22741146  .00002819  00000-0  19516-3 0  9993,2 53289  53.2153 192.5259 0001300  92.1250 267.9891 15.08839205 43262,6917.883,95.438,540.647,538.848,0.0
53289.0,STARLINK-4176,PAYLOAD,2023-04-29 13:24:24,15.08840719,0.000117,53.2167,191.0401,90.9109,269.2018,0.00042737,6.52e-05,0.0,0 STARLINK-4176,1 53289U 22086AZ  23119.55861249  .00006520  00000-0  42737-3 0  9990,2 53289  53.2167 191.0401 0001170  90.9109 269.2018 15.08840719 43475,6917.878,95.438,540.553,538.934,0.0
53289.0,STARLINK-4176,PAYLOAD,2023-04-30 10:04:24,15.08841788,0.000122,53.2159,187.1719,104.3572,255.7555,0.00026153,3.877e-05,0.0,0 STARLINK-4176,1 53289U 22086AZ  23120.41973291  .00003877  00000-0  26153-3 0  9994,2 53289  53.2159 187.1719 0001220 104.3572 255.7555 15.08841788 43602,6917.875,95.437,540.584,538.896,0.0
53289.0,STARLINK-4176,PAYLOAD,2023-04-30 14:50:34,15.08844406,0.0001321,53.2161,186.2794,103.6367,256.4772,0.00034624,5.227e-05,0.0,0 STARLINK-4176,1 53289U 22086AZ  23120.61845265  .00005227  00000-0  34624-3 0  9998,2 53289  53.2161 186.2794 0001321 103.6367 256.4772 15.08844406 43478,6917.867,95.437,540.646,538.818,0.0
53289.0,STARLINK-4176,PAYLOAD,2023-05-01 11:30:36,15.08825983,9.77e-05,53.2162,182.4143,110.0758,250.0339,-8.2447e-05,-1.599e-05,0.0,0 STARLINK-4176,1 53289U 22086AZ  23121.47958348 -.00001599  00000-0 -82447-4 0  9997,2 53289  53.2162 182.4143 0000977 110.0758 250.0339 15.08825983 43600,6917.923,95.438,540.464,539.112,0.0
53289.0,STARLINK-4176,PAYLOAD,2023-05-01 16:16:45,15.08820289,0.0001295,53.2156,181.5195,109.7642,250.349,-0.00017389,-3.053e-05,0.0,0 STARLINK-4176,1 53289U 22086AZ  23121.67830782 -.00003053  00000-0 -17389-3 0  9999,2 53289  53.2156 181.5195 0001295 109.7642 250.3490 15.08820289 43796,6917.941,95.439,540.702,538.91,0.0
53289.0,STARLINK-4176,PAYLOAD,2023-05-02 11:21:23,15.08836326,0.0001054,53.215,177.9547,88.7486,271.3627,0.00010409,1.369e-05,0.0,0 STARLINK-4176,1 53289U 22086AZ  23122.47318964  .00001369  00000-0  10409-3 0  9993,2 53289  53.2150 177.9547 0001054  88.7486 271.3627 15.08836326 43913,6917.892,95.438,540.486,539.027,0.0
53289.0,STARLINK-4176,PAYLOAD,2023-05-02 16:07:32,15.08840858,9.95e-05,53.2151,177.0623,88.1115,271.9991,0.00020801,3.024e-05,0.0,0 STARLINK-4176,1 53289U 22086AZ  23122.67190834  .00003024  00000-0  20801-3 0  9996,2 53289  53.2151 177.0623 0000995  88.1115 271.9991 15.08840858 43786,6917.878,95.438,540.431,539.054,0.0
53289.0,STARLINK-4176,PAYLOAD,2023-05-02 20:53:41,15.08850245,0.0001019,53.2154,176.1701,95.8194,264.2914,-2.032e-06,-3.2e-06,0.0,0 STARLINK-4176,1 53289U 22086AZ  23122.87062281 -.00000320  00000-0 -20320-5 0  9998,2 53289  53.2154 176.1701 0001019  95.8194 264.2914 15.08850245 43978,6917.849,95.437,540.419,539.009,0.0
53289.0,STARLINK-4176,PAYLOAD,2023-05-03 09:36:47,15.08853508,0.0001067,53.2143,173.791,88.8751,271.2363,0.00059449,9.19e-05,0.0,0 STARLINK-4176,1 53289U 22086AZ  23123.40054725  .00009190  00000-0  59449-3 0  9996,2 53289  53.2143 173.7910 0001067  88.8751 271.2363 15.08853508 44056,6917.839,95.437,540.442,538.966,0.0
53289.0,STARLINK-4176,PAYLOAD,2023-05-04 03:06:01,15.08855953,0.0001044,53.2132,170.5201,85.096,275.0151,0.00028612,4.271e-05,0.0,0 STARLINK-4176,1 53289U 22086AZ  23124.12918127  .00004271  00000-0  28612-3 0  9994,2 53289  53.2132 170.5201 0001044  85.0960 275.0151 15.08855953 44006,6917.832,95.437,540.419,538.974,0.0
53289.0,STARLINK-4176,PAYLOAD,2023-05-04 09:27:33,15.08855623,0.0001006,53.2138,169.3299,88.3674,271.7433,0.00023003,3.377e-05,0.0,0 STARLINK-4176,1 53289U 22086AZ  23124.39413890  .00003377  00000-0  23003-3 0  9995,2 53289  53.2138 169.3299 0001006  88.3674 271.7433 15.08855623 44203,6917.833,95.437,540.394,539.002,0.0
53289.0,STARLINK-4176,PAYLOAD,2023-05-04 14:13:42,15.08859004,0.0001022,53.2141,168.4379,88.0982,272.0127,0.00028227,4.21e-05,0.0,0 STARLINK-4176,1 53289U 22086AZ  23124.59285633  .00004210  00000-0  28227-3 0  9999,2 53289  53.2141 168.4379 0001022  88.0982 272.0127 15.08859004 44237,6917.822,95.436,540.394,538.98,0.0
53289.0,STARLINK-4176,PAYLOAD,2023-05-05 07:42:57,15.08845496,0.0001041,53.2138,165.1668,94.9129,265.1982,-7.5567e-06,-4.08e-06,0.0,0 STARLINK-4176,1 53289U 22086AZ  23125.32149789 -.00000408  00000-0 -75567-5 0  9990,2 53289  53.2138 165.1668 0001041  94.9129 265.1982 15.08845496 44184,6917.864,95.437,540.449,539.008,0.0
53289.0,STARLINK-4176,PAYLOAD,2023-05-05 12:29:06,15.0884945,0.0001095,53.2151,164.2758,92.2639,267.8478,6.729e-05,7.84e-06,0.0,0 STARLINK-4176,1 53289U 22086AZ  23125.52021665  .00000784  00000-0  67290-4 0  9992,2 53289  53.2151 164.2758 0001095  92.2639 267.8478 15.08849450 44379,6917.852,95.437,540.474,538.959,0.0
53289.0,STARLINK-4176,PAYLOAD,2023-05-06 07:33:44,15.08843184,0.0001087,53.2143,160.7057,102.5354,257.576,4.0423e-05,3.56e-06,0.0,0 STARLINK-4176,1 53289U 22086AZ  23126.31509849  .00000356  00000-0  40423-4 0  9999,2 53289  53.2143 160.7057 0001087 102.5354 257.5760 15.08843184 44494,6917.871,95.437,540.488,538.984,0.0
53289.0,STARLINK-4176,PAYLOAD,2023-05-07 02:38:22,15.08843408,0.0001077,53.2141,157.1378,103.7596,256.3516,0.00016812,2.389e-05,0.0,0 STARLINK-4176,1 53289U 22086AZ  23127.10997818  .00002389  00000-0  16812-3 0  9996,2 53289  53.2141 157.1378 0001077 103.7596 256.3516 15.08843408 44459,6917.87,95.437,540.48,538.99,0.0
53289.0,STARLINK-4176,PAYLOAD,2023-05-07 07:24:31,15.08843844,0.0001056,53.2144,156.2457,103.8946,256.2163,0.00014053,1.95e-05,0.0,0 STARLINK-4176,1 53289U 22086AZ  23127.30869756  .00001950  00000-0  14053-3 0  9995,2 53289  53.2144 156.2457 0001056 103.8946 256.2163 15.08843844 44649,6917.869,95.437,540.464,539.003,0.0
53289.0,STARLINK-4176,PAYLOAD,2023-05-07 18:32:13,15.08840415,9.71e-05,53.2147,154.1661,97.75,262.3602,7.7903e-05,9.52e-06,0.0,0 STARLINK-4176,1 53289U 22086AZ  23127.77237947  .00000952  00000-0  77903-4 0  9992,2 53289  53.2147 154.1661 0000971  97.7500 262.3602 15.08840415 44713,6917.879,95.438,540.416,539.072,0.0
53289.0,STARLINK-4176,PAYLOAD,2023-05-08 08:50:42,15.08833269,0.0001043,53.2144,151.4899,98.6728,261.4382,2.7131e-07,-2.83e-06,0.0,0 STARLINK-4176,1 53289U 22086AZ  23128.36854459 -.00000283  00000-0  27131-6 0  9999,2 53289  53.2144 151.4899 0001043  98.6728 261.4382 15.08833269 44642,6917.901,95.438,540.488,539.044,0.0
